CTC1_L_00066001-01
1 10000U 24270NB  26075.70030093  .00000000  00000+0  00000-0 0  9997
2 10000  85.0000   0.0000 0000000   0.0000   0.0000 14.98995063    11
CTC1_L_00066001-02
1 10001U 24376QP  26075.70030093  .00000000  00000+0  00000-0 0  9995
2 10001  85.0000   0.0000 0000000   0.0000  90.0000 14.98995063    11
CTC1_L_00066001-03
1 10002U 22611GN  26075.70030093  .00000000  00000+0  00000-0 0  9996
2 10002  85.0000   0.0000 0000000   0.0000 180.0000 14.98995063    12
CTC1_L_00066001-04
1 10003U 24504LN  26075.70030093  .00000000  00000+0  00000-0 0  9990
2 10003  85.0000   0.0000 0000000   0.0000 270.0000 14.98995063    13
CTC1_L_00066002-01
1 10004U 24620DL  26075.70030093  .00000000  00000+0  00000-0 0  9990
2 10004  85.0000  12.0000 0000000   0.0000  12.0000 14.98995063    11
CTC1_L_00066002-02
1 10005U 22265DX  26075.70030093  .00000000  00000+0  00000-0 0  9994
2 10005  85.0000  12.0000 0000000   0.0000 102.0000 14.98995063    12
CTC1_L_00066002-03
1 10006U 22792HY  26075.70030093  .00000000  00000+0  00000-0 0  9990
2 10006  85.0000  12.0000 0000000   0.0000 192.0000 14.98995063    12
CTC1_L_00066002-04
1 10007U 26760JR  26075.70030093  .00000000  00000+0  00000-0 0  9990
2 10007  85.0000  12.0000 0000000   0.0000 282.0000 14.98995063    13
CTC1_L_00066003-01
1 10008U 26779MH  26075.70030093  .00000000  00000+0  00000-0 0  9991
2 10008  85.0000  24.0000 0000000   0.0000  24.0000 14.98995063    11
CTC1_L_00066003-02
1 10009U 24395EC  26075.70030093  .00000000  00000+0  00000-0 0  9994
2 10009  85.0000  24.0000 0000000   0.0000 114.0000 14.98995063    12
CTC1_L_00066003-03
1 10010U 26238CK  26075.70030093  .00000000  00000+0  00000-0 0  9994
2 10010  85.0000  24.0000 0000000   0.0000 204.0000 14.98995063    14
CTC1_L_00066003-04
1 10011U 23265ID  26075.70030093  .00000000  00000+0  00000-0 0  9992
2 10011  85.0000  24.0000 0000000   0.0000 294.0000 14.98995063    14
CTC1_L_00066004-01
1 10012U 22155OS  26075.70030093  .00000000  00000+0  00000-0 0  9990
2 10012  85.0000  36.0000 0000000   0.0000  36.0000 14.98995063    12
CTC1_L_00066004-02
1 10013U 22256CR  26075.70030093  .00000000  00000+0  00000-0 0  9993
2 10013  85.0000  36.0000 0000000   0.0000 126.0000 14.98995063    13
CTC1_L_00066004-03
1 10014U 22294DI  26075.70030093  .00000000  00000+0  00000-0 0  9996
2 10014  85.0000  36.0000 0000000   0.0000 216.0000 14.98995063    14
CTC1_L_00066004-04
1 10015U 22082GB  26075.70030093  .00000000  00000+0  00000-0 0  9992
2 10015  85.0000  36.0000 0000000   0.0000 306.0000 14.98995063    15
CTC1_L_00066005-01
1 10016U 22776ZI  26075.70030093  .00000000  00000+0  00000-0 0  9993
2 10016  85.0000  48.0000 0000000   0.0000  48.0000 14.98995063    12
CTC1_L_00066005-02
1 10017U 25757ML  26075.70030093  .00000000  00000+0  00000-0 0  9996
2 10017  85.0000  48.0000 0000000   0.0000 138.0000 14.98995063    13
CTC1_L_00066005-03
1 10018U 24684FS  26075.70030093  .00000000  00000+0  00000-0 0  9995
2 10018  85.0000  48.0000 0000000   0.0000 228.0000 14.98995063    14
CTC1_L_00066005-04
1 10019U 24979XN  26075.70030093  .00000000  00000+0  00000-0 0  9993
2 10019  85.0000  48.0000 0000000   0.0000 318.0000 14.98995063    15
CTC1_L_00066006-01
1 10020U 25700GA  26075.70030093  .00000000  00000+0  00000-0 0  9998
2 10020  85.0000  60.0000 0000000   0.0000  60.0000 14.98995063    15
CTC1_L_00066006-02
1 10021U 22418IA  26075.70030093  .00000000  00000+0  00000-0 0  9992
2 10021  85.0000  60.0000 0000000   0.0000 150.0000 14.98995063    16
CTC1_L_00066006-03
1 10022U 25309ZM  26075.70030093  .00000000  00000+0  00000-0 0  9995
2 10022  85.0000  60.0000 0000000   0.0000 240.0000 14.98995063    17
CTC1_L_00066006-04
1 10023U 24088MY  26075.70030093  .00000000  00000+0  00000-0 0  9999
2 10023  85.0000  60.0000 0000000   0.0000 330.0000 14.98995063    18
CTC1_L_00066007-01
1 10024U 25999QH  26075.70030093  .00000000  00000+0  00000-0 0  9992
2 10024  85.0000  72.0000 0000000   0.0000  72.0000 14.98995063    15
CTC1_L_00066007-02
1 10025U 23981CZ  26075.70030093  .00000000  00000+0  00000-0 0  9992
2 10025  85.0000  72.0000 0000000   0.0000 162.0000 14.98995063    16
CTC1_L_00066007-03
1 10026U 26404ES  26075.70030093  .00000000  00000+0  00000-0 0  9996
2 10026  85.0000  72.0000 0000000   0.0000 252.0000 14.98995063    17
CTC1_L_00066007-04
1 10027U 24444UY  26075.70030093  .00000000  00000+0  00000-0 0  9999
2 10027  85.0000  72.0000 0000000   0.0000 342.0000 14.98995063    18
CTC1_L_00066008-01
1 10028U 26718YH  26075.70030093  .00000000  00000+0  00000-0 0  9996
2 10028  85.0000  84.0000 0000000   0.0000  84.0000 14.98995063    15
CTC1_L_00066008-02
1 10029U 26662KO  26075.70030093  .00000000  00000+0  00000-0 0  9995
2 10029  85.0000  84.0000 0000000   0.0000 174.0000 14.98995063    16
CTC1_L_00066008-03
1 10030U 22558FO  26075.70030093  .00000000  00000+0  00000-0 0  9997
2 10030  85.0000  84.0000 0000000   0.0000 264.0000 14.98995063    18
CTC1_L_00066008-04
1 10031U 25003TR  26075.70030093  .00000000  00000+0  00000-0 0  9996
2 10031  85.0000  84.0000 0000000   0.0000 354.0000 14.98995063    19
CTC1_L_00066009-01
1 10032U 24636CJ  26075.70030093  .00000000  00000+0  00000-0 0  9998
2 10032  85.0000  96.0000 0000000   0.0000  96.0000 14.98995063    16
CTC1_L_00066009-02
1 10033U 23496ZK  26075.70030093  .00000000  00000+0  00000-0 0  9992
2 10033  85.0000  96.0000 0000000   0.0000 186.0000 14.98995063    17
CTC1_L_00066009-03
1 10034U 25347TU  26075.70030093  .00000000  00000+0  00000-0 0  9990
2 10034  85.0000  96.0000 0000000   0.0000 276.0000 14.98995063    18
CTC1_L_00066009-04
1 10035U 26229ZN  26075.70030093  .00000000  00000+0  00000-0 0  9991
2 10035  85.0000  96.0000 0000000   0.0000   6.0000 14.98995063    10
CTC1_L_00066010-01
1 10036U 26746ZX  26075.70030093  .00000000  00000+0  00000-0 0  9996
2 10036  85.0000 108.0000 0000000   0.0000 108.0000 14.98995063    18
CTC1_L_00066010-02
1 10037U 25319HZ  26075.70030093  .00000000  00000+0  00000-0 0  9992
2 10037  85.0000 108.0000 0000000   0.0000 198.0000 14.98995063    18
CTC1_L_00066010-03
1 10038U 26379DF  26075.70030093  .00000000  00000+0  00000-0 0  9990
2 10038  85.0000 108.0000 0000000   0.0000 288.0000 14.98995063    19
CTC1_L_00066010-04
1 10039U 22899ON  26075.70030093  .00000000  00000+0  00000-0 0  9994
2 10039  85.0000 108.0000 0000000   0.0000  18.0000 14.98995063    11
CTC1_L_00066011-01
1 10040U 24869RW  26075.70030093  .00000000  00000+0  00000-0 0  9995
2 10040  85.0000 120.0000 0000000   0.0000 120.0000 14.98995063    11
CTC1_L_00066011-02
1 10041U 26204FT  26075.70030093  .00000000  00000+0  00000-0 0  9991
2 10041  85.0000 120.0000 0000000   0.0000 210.0000 14.98995063    12
CTC1_L_00066011-03
1 10042U 24038XV  26075.70030093  .00000000  00000+0  00000-0 0  9995
2 10042  85.0000 120.0000 0000000   0.0000 300.0000 14.98995063    13
CTC1_L_00066011-04
1 10043U 26035GX  26075.70030093  .00000000  00000+0  00000-0 0  9995
2 10043  85.0000 120.0000 0000000   0.0000  30.0000 14.98995063    14
CTC1_L_00066012-01
1 10044U 25446L   26075.70030093  .00000000  00000+0  00000-0 0  9991
2 10044  85.0000 132.0000 0000000   0.0000 132.0000 14.98995063    11
CTC1_L_00066012-02
1 10045U 22502XY  26075.70030093  .00000000  00000+0  00000-0 0  9992
2 10045  85.0000 132.0000 0000000   0.0000 222.0000 14.98995063    12
CTC1_L_00066012-03
1 10046U 23410LX  26075.70030093  .00000000  00000+0  00000-0 0  9992
2 10046  85.0000 132.0000 0000000   0.0000 312.0000 14.98995063    13
CTC1_L_00066012-04
1 10047U 22145RB  26075.70030093  .00000000  00000+0  00000-0 0  9997
2 10047  85.0000 132.0000 0000000   0.0000  42.0000 14.98995063    14
CTC1_L_00066013-01
1 10048U 22920MF  26075.70030093  .00000000  00000+0  00000-0 0  9999
2 10048  85.0000 144.0000 0000000   0.0000 144.0000 14.98995063    11
CTC1_L_00066013-02
1 10049U 22858KI  26075.70030093  .00000000  00000+0  00000-0 0  9990
2 10049  85.0000 144.0000 0000000   0.0000 234.0000 14.98995063    12
CTC1_L_00066013-03
1 10050U 22397TX  26075.70030093  .00000000  00000+0  00000-0 0  9990
2 10050  85.0000 144.0000 0000000   0.0000 324.0000 14.98995063    14
CTC1_L_00066013-04
1 10051U 24657SS  26075.70030093  .00000000  00000+0  00000-0 0  9992
2 10051  85.0000 144.0000 0000000   0.0000  54.0000 14.98995063    15
CTC1_L_00066014-01
1 10052U 23252ZJ  26075.70030093  .00000000  00000+0  00000-0 0  9993
2 10052  85.0000 156.0000 0000000   0.0000 156.0000 14.98995063    12
CTC1_L_00066014-02
1 10053U 26058JQ  26075.70030093  .00000000  00000+0  00000-0 0  9991
2 10053  85.0000 156.0000 0000000   0.0000 246.0000 14.98995063    13
CTC1_L_00066014-03
1 10054U 23942WM  26075.70030093  .00000000  00000+0  00000-0 0  9991
2 10054  85.0000 156.0000 0000000   0.0000 336.0000 14.98995063    14
CTC1_L_00066014-04
1 10055U 26712DA  26075.70030093  .00000000  00000+0  00000-0 0  9990
2 10055  85.0000 156.0000 0000000   0.0000  66.0000 14.98995063    15
CTC1_L_00066015-01
1 10056U 22679HH  26075.70030093  .00000000  00000+0  00000-0 0  9999
2 10056  85.0000 168.0000 0000000   0.0000 168.0000 14.98995063    12
CTC1_L_00066015-02
1 10057U 26202DE  26075.70030093  .00000000  00000+0  00000-0 0  9996
2 10057  85.0000 168.0000 0000000   0.0000 258.0000 14.98995063    13
CTC1_L_00066015-03
1 10058U 24839JP  26075.70030093  .00000000  00000+0  00000-0 0  9991
2 10058  85.0000 168.0000 0000000   0.0000 348.0000 14.98995063    14
CTC1_L_00066015-04
1 10059U 24103VN  26075.70030093  .00000000  00000+0  00000-0 0  9996
2 10059  85.0000 168.0000 0000000   0.0000  78.0000 14.98995063    15
CTC1_L_00066016-01
1 10060U 25639DT  26075.70030093  .00000000  00000+0  00000-0 0  9993
2 10060  85.0000 180.0000 0000000   0.0000 180.0000 14.98995063    15
CTC1_L_00066016-02
1 10061U 22713ZX  26075.70030093  .00000000  00000+0  00000-0 0  9994
2 10061  85.0000 180.0000 0000000   0.0000 270.0000 14.98995063    16
